{"type": "FeatureCollection", "features": [ {"type": "Feature", "properties": {"norad_id": 30878, "name": "FENGYUN 1C DEB", "group": "fengyun-1c-debris", "lat": 56.59927808660061, "lon": -26.494513607448596, "alt_km": 861.6296253977225, "timestamp": "2025-12-11T10:53:16.166369+00:00", "meta": {"OBJECT_NAME": "FENGYUN 1C DEB", "OBJECT_ID": "1999-025AXQ", "EPOCH": "2025-12-10T11:31:40.099872", "MEAN_MOTION": 14.11878185, "ECCENTRICITY": 0.00400504, "INCLINATION": 98.7208, "RA_OF_ASC_NODE": 346.0196, "ARG_OF_PERICENTER": 301.009, "MEAN_ANOMALY": 211.8141, "EPHEMERIS_TYPE": 0, "CLASSIFICATION_TYPE": "U", "NORAD_CAT_ID": 30878, "ELEMENT_SET_NO": 999, "REV_AT_EPOCH": 96335, "BSTAR": 0.0008727965, "MEAN_MOTION_DOT": 1.563e-05, "MEAN_MOTION_DDOT": 0}, "tle": {"line1": "1 30878U 99025AXQ 25344.48032523  .00001563  00000+0  87280-3 0  9998", "line2": "2 30878  98.7208 346.0196 0040050 301.0090 211.8141 14.11878185963351"}}, "geometry": {"type": "Point", "coordinates": [-26.494513607448596, 56.59927808660061]}}, {"type": "Feature", "properties": {"norad_id": 30879, "name": "FENGYUN 1C DEB", "group": "fengyun-1c-debris", "lat": 36.21609134279695, "lon": 28.856015337586527, "alt_km": 777.3017881994765, "timestamp": "2025-12-11T10:53:16.166380+00:00", "meta": {"OBJECT_NAME": "FENGYUN 1C DEB", "OBJECT_ID": "1999-025AXR", "EPOCH": "2025-12-10T08:01:56.935200", "MEAN_MOTION": 14.67100722, "ECCENTRICITY": 0.02034371, "INCLINATION": 99.3511, "RA_OF_ASC_NODE": 200.649, "ARG_OF_PERICENTER": 287.3299, "MEAN_ANOMALY": 70.574, "EPHEMERIS_TYPE": 0, "CLASSIFICATION_TYPE": "U", "NORAD_CAT_ID": 30879, "ELEMENT_SET_NO": 999, "REV_AT_EPOCH": 61904, "BSTAR": 0.0058282981, "MEAN_MOTION_DOT": 0.00044889, "MEAN_MOTION_DDOT": 0}, "tle": {"line1": "1 30879U 99025AXR 25344.33468675  .00044889  00000+0  58283-2 0  9992", "line2": "2 30879  99.3511 200.6490 0203437 287.3299  70.5740 14.67100722619040"}}, "geometry": {"type": "Point", "coordinates": [28.856015337586527, 36.21609134279695]}}, {"type": "Feature", "properties": {"norad_id": 30880, "name": "FENGYUN 1C DEB", "group": "fengyun-1c-debris", "lat": 33.01565875601599, "lon": -116.93500970427624, "alt_km": 791.3226990236844, "timestamp": "2025-12-11T10:53:16.166390+00:00", "meta": {"OBJECT_NAME": "FENGYUN 1C DEB", "OBJECT_ID": "1999-025AXS", "EPOCH": "2025-12-11T03:28:01.418304", "MEAN_MOTION": 14.25582411, "ECCENTRICITY": 0.0022419, "INCLINATION": 98.7946, "RA_OF_ASC_NODE": 56.9815, "ARG_OF_PERICENTER": 111.9036, "MEAN_ANOMALY": 248.4529, "EPHEMERIS_TYPE": 0, "CLASSIFICATION_TYPE": "U", "NORAD_CAT_ID": 30880, "ELEMENT_SET_NO": 999, "REV_AT_EPOCH": 96691, "BSTAR": 0.002005, "MEAN_MOTION_DOT": 4.716e-05, "MEAN_MOTION_DDOT": 0}, "tle": {"line1": "1 30880U 99025AXS 25345.14446086  .00004716  00000+0  20050-2 0  9992", "line2": "2 30880  98.7946  56.9815 0022419 111.9036 248.4529 14.25582411966915"}}, "geometry": {"type": "Point", "coordinates": [-116.93500970427624, 33.01565875601599]}}, {"type": "Feature", "properties": {"norad_id": 30882, "name": "FENGYUN 1C DEB", "group": "fengyun-1c-debris", "lat": 73.41168493670257, "lon": 12.835614665300456, "alt_km": 508.384883340188, "timestamp": "2025-12-11T10:53:16.166401+00:00", "meta": {"OBJECT_NAME": "FENGYUN 1C DEB", "OBJECT_ID": "1999-025AXU", "EPOCH": "2025-12-10T21:38:12.350976", "MEAN_MOTION": 14.86642333, "ECCENTRICITY": 0.0153584, "INCLINATION": 97.9438, "RA_OF_ASC_NODE": 40.2365, "ARG_OF_PERICENTER": 46.8265, "MEAN_ANOMALY": 314.5667, "EPHEMERIS_TYPE": 0, "CLASSIFICATION_TYPE": "U", "NORAD_CAT_ID": 30882, "ELEMENT_SET_NO": 999, "REV_AT_EPOCH": 99627, "BSTAR": 0.0014141, "MEAN_MOTION_DOT": 0.00015542, "MEAN_MOTION_DDOT": 0}, "tle": {"line1": "1 30882U 99025AXU 25344.90153184  .00015542  00000+0  14141-2 0  9994", "line2": "2 30882  97.9438  40.2365 0153584  46.8265 314.5667 14.86642333996275"}}, "geometry": {"type": "Point", "coordinates": [12.835614665300456, 73.41168493670257]}}, {"type": "Feature", "properties": {"norad_id": 30883, "name": "FENGYUN 1C DEB", "group": "fengyun-1c-debris", "lat": 65.15515447175697, "lon": 4.099502957682208, "alt_km": 907.8679383339777, "timestamp": "2025-12-11T10:53:16.166412+00:00", "meta": {"OBJECT_NAME": "FENGYUN 1C DEB", "OBJECT_ID": "1999-025AXV", "EPOCH": "2025-12-08T09:39:11.997216", "MEAN_MOTION": 14.14544388, "ECCENTRICITY": 0.01116431, "INCLINATION": 98.3623, "RA_OF_ASC_NODE": 19.7631, "ARG_OF_PERICENTER": 226.477, "MEAN_ANOMALY": 150.4699, "EPHEMERIS_TYPE": 0, "CLASSIFICATION_TYPE": "U", "NORAD_CAT_ID": 30883, "ELEMENT_SET_NO": 999, "REV_AT_EPOCH": 96856, "BSTAR": 0.00035441488, "MEAN_MOTION_DOT": 6.81e-06, "MEAN_MOTION_DDOT": 0}, "tle": {"line1": "1 30883U 99025AXV 25342.40222219  .00000681  00000+0  35441-3 0  9999", "line2": "2 30883  98.3623  19.7631 0111643 226.4770 150.4699 14.14544388968566"}}, "geometry": {"type": "Point", "coordinates": [4.099502957682208, 65.15515447175697]}}, {"type": "Feature", "properties": {"norad_id": 30884, "name": "FENGYUN 1C DEB", "group": "fengyun-1c-debris", "lat": 68.3731633089894, "lon": -177.58178036822918, "alt_km": 673.625032480837, "timestamp": "2025-12-11T10:53:16.166437+00:00", "meta": {"OBJECT_NAME": "FENGYUN 1C DEB", "OBJECT_ID": "1999-025AXW", "EPOCH": "2025-12-09T11:07:37.314048", "MEAN_MOTION": 14.73332771, "ECCENTRICITY": 0.00673714, "INCLINATION": 98.8907, "RA_OF_ASC_NODE": 336.9851, "ARG_OF_PERICENTER": 346.1354, "MEAN_ANOMALY": 13.7999, "EPHEMERIS_TYPE": 0, "CLASSIFICATION_TYPE": "U", "NORAD_CAT_ID": 30884, "ELEMENT_SET_NO": 999, "REV_AT_EPOCH": 98613, "BSTAR": 0.0032347053, "MEAN_MOTION_DOT": 0.00021706, "MEAN_MOTION_DDOT": 0}, "tle": {"line1": "1 30884U 99025AXW 25343.46362632  .00021706  00000+0  32347-2 0  9993", "line2": "2 30884  98.8907 336.9851 0067371 346.1354  13.7999 14.73332771986134"}}, "geometry": {"type": "Point", "coordinates": [-177.58178036822918, 68.3731633089894]}}, {"type": "Feature", "properties": {"norad_id": 30885, "name": "FENGYUN 1C DEB", "group": "fengyun-1c-debris", "lat": -79.0394071120655, "lon": -49.275459333712405, "alt_km": 705.7851981076683, "timestamp": "2025-12-11T10:53:16.166451+00:00", "meta": {"OBJECT_NAME": "FENGYUN 1C DEB", "OBJECT_ID": "1999-025AXX", "EPOCH": "2025-12-10T07:59:49.960896", "MEAN_MOTION": 14.49349742, "ECCENTRICITY": 0.0053899, "INCLINATION": 99.0266, "RA_OF_ASC_NODE": 184.6927, "ARG_OF_PERICENTER": 226.5434, "MEAN_ANOMALY": 314.0032, "EPHEMERIS_TYPE": 0, "CLASSIFICATION_TYPE": "U", "NORAD_CAT_ID": 30885, "ELEMENT_SET_NO": 999, "REV_AT_EPOCH": 96942, "BSTAR": 0.0040885, "MEAN_MOTION_DOT": 0.00015893, "MEAN_MOTION_DDOT": 0}, "tle": {"line1": "1 30885U 99025AXX 25344.33321714  .00015893  00000+0  40885-2 0  9993", "line2": "2 30885  99.0266 184.6927 0053899 226.5434 314.0032 14.49349742969425"}}, "geometry": {"type": "Point", "coordinates": [-49.275459333712405, -79.0394071120655]}}, {"type": "Feature", "properties": {"norad_id": 30886, "name": "FENGYUN 1C DEB", "group": "fengyun-1c-debris", "lat": -77.6027168354872, "lon": -74.06571369324233, "alt_km": 836.0327668877098, "timestamp": "2025-12-11T10:53:16.166462+00:00", "meta": {"OBJECT_NAME": "FENGYUN 1C DEB", "OBJECT_ID": "1999-025AXY", "EPOCH": "2025-12-10T23:27:22.061088", "MEAN_MOTION": 14.22760362, "ECCENTRICITY": 0.0036202, "INCLINATION": 99.2087, "RA_OF_ASC_NODE": 237.875, "ARG_OF_PERICENTER": 39.1251, "MEAN_ANOMALY": 321.2533, "EPHEMERIS_TYPE": 0, "CLASSIFICATION_TYPE": "U", "NORAD_CAT_ID": 30886, "ELEMENT_SET_NO": 999, "REV_AT_EPOCH": 96371, "BSTAR": 0.0026837, "MEAN_MOTION_DOT": 6.014e-05, "MEAN_MOTION_DDOT": 0}, "tle": {"line1": "1 30886U 99025AXY 25344.97733867  .00006014  00000+0  26837-2 0  9996", "line2": "2 30886  99.2087 237.8750 0036202  39.1251 321.2533 14.22760362963716"}}, "geometry": {"type": "Point", "coordinates": [-74.06571369324233, -77.6027168354872]}}, {"type": "Feature", "properties": {"norad_id": 30887, "name": "FENGYUN 1C DEB", "group": "fengyun-1c-debris", "lat": 36.33279373266122, "lon": -132.44682144844208, "alt_km": 899.0855655205487, "timestamp": "2025-12-11T10:53:16.166473+00:00", "meta": {"OBJECT_NAME": "FENGYUN 1C DEB", "OBJECT_ID": "1999-025AXZ", "EPOCH": "2025-12-10T14:15:44.587584", "MEAN_MOTION": 14.44795187, "ECCENTRICITY": 0.0263735, "INCLINATION": 98.369, "RA_OF_ASC_NODE": 40.4903, "ARG_OF_PERICENTER": 294.3463, "MEAN_ANOMALY": 63.0402, "EPHEMERIS_TYPE": 0, "CLASSIFICATION_TYPE": "U", "NORAD_CAT_ID": 30887, "ELEMENT_SET_NO": 999, "REV_AT_EPOCH": 98097, "BSTAR": 0.00096076, "MEAN_MOTION_DOT": 5.068e-05, "MEAN_MOTION_DDOT": 0}, "tle": {"line1": "1 30887U 99025AXZ 25344.59426606  .00005068  00000+0  96076-3 0  9996", "line2": "2 30887  98.3690  40.4903 0263735 294.3463  63.0402 14.44795187980978"}}, "geometry": {"type": "Point", "coordinates": [-132.44682144844208, 36.33279373266122]}}, {"type": "Feature", "properties": {"norad_id": 30888, "name": "FENGYUN 1C DEB", "group": "fengyun-1c-debris", "lat": 79.32240212126757, "lon": -153.5576111242271, "alt_km": 549.1793388841497, "timestamp": "2025-12-11T10:53:16.166483+00:00", "meta": {"OBJECT_NAME": "FENGYUN 1C DEB", "OBJECT_ID": "1999-025AYA", "EPOCH": "2025-12-11T04:01:56.793216", "MEAN_MOTION": 14.93828442, "ECCENTRICITY": 0.0083382, "INCLINATION": 99.4836, "RA_OF_ASC_NODE": 323.6514, "ARG_OF_PERICENTER": 155.8232, "MEAN_ANOMALY": 204.6931, "EPHEMERIS_TYPE": 0, "CLASSIFICATION_TYPE": "U", "NORAD_CAT_ID": 30888, "ELEMENT_SET_NO": 999, "REV_AT_EPOCH": 99902, "BSTAR": 0.001642, "MEAN_MOTION_DOT": 0.00018623, "MEAN_MOTION_DDOT": 0}, "tle": {"line1": "1 30888U 99025AYA 25345.16801844  .00018623  00000+0  16420-2 0  9997", "line2": "2 30888  99.4836 323.6514 0083382 155.8232 204.6931 14.93828442999021"}}, "geometry": {"type": "Point", "coordinates": [-153.5576111242271, 79.32240212126757]}}]}